STARLINK-36237          
1 68337U 26059S   26090.66668981 -.00866364  00000+0 -47087-2 0  9998
2 68337  53.1593 252.6114 0001000  67.9776 208.6764 15.81486973  2578
STARLINK-36254          
1 68338U 26059T   26090.66668981 -.01573633  00000+0 -85547-2 0  9997
2 68338  53.1593 252.5947 0001069  85.6099 199.0703 15.82182018  2572
STARLINK-37200          
1 68339U 26059U   26090.66668981 -.01269689  00000+0 -69663-2 0  9992
2 68339  53.1592 252.6033 0001256  99.8036 180.8964 15.81831531  2572
STARLINK-37185          
1 68340U 26059V   26090.66668981 -.01828809  00000+0 -97920-2 0  9996
2 68340  53.1593 252.5867 0000627  79.3538 209.3279 15.82470616  2570
STARLINK-37181          
1 68341U 26059W   26090.66668981 -.01908523  00000+0 -10164-1 0  9993
2 68341  53.1594 252.5782 0000926  73.8240 218.8218 15.82710798  2575
STARLINK-37192          
1 68342U 26059X   26090.66668981 -.01956325  00000+0 -10233-1 0  9994
2 68342  53.1592 252.5623 0000857  73.8084 226.6208 15.83167276  2571
STARLINK-37158          
1 68343U 26059Y   26090.66668981 -.01987036  00000+0 -10314-1 0  9998
2 68343  53.1593 252.5541 0000492  78.1598 226.1343 15.83383183  2577
STARLINK-36380          
1 68344U 26059Z   26090.66668981 -.01978563  00000+0 -10483-1 0  9991
2 68344  53.1592 252.5705 0000761  67.0637 229.5322 15.82936644  2578
STARLINK-37214          
1 68345U 26059AA  26090.66668981 -.01977767  00000+0 -10059-1 0  9996
2 68345  53.1593 252.5383 0000591  65.4106 246.4881 15.83790224  2577
STARLINK-37169          
1 68346U 26059AB  26090.66668981 -.01968431  00000+0 -99069-2 0  9994
2 68346  53.1592 252.5304 0000643  75.5653 240.0732 15.83992471  2570
STARLINK-37136          
1 68347U 26059AC  26090.66668981 -.01966979  00000+0 -98087-2 0  9999
2 68347  53.1593 252.5226 0000681  79.0676 240.3322 15.84180643  2570
STARLINK-37182          
1 68348U 26059AD  26090.66668981 -.01995570  00000+0 -10274-1 0  9990
2 68348  53.1593 252.5461 0000770  69.8164 238.3665 15.83565641  2571
